[{"OBJECT_NAME":"STARLINK-31704","OBJECT_ID":"2024-076Y","EPOCH":"2026-03-09T22:00:01.999584","MEAN_MOTION":15.30892355,"ECCENTRICITY":0.00079744,"INCLINATION":42.9978,"RA_OF_ASC_NODE":323.2923,"ARG_OF_PERICENTER":240.5046,"MEAN_ANOMALY":200.4144,"EPHEMERIS_TYPE":0,"CLASSIFICATION_TYPE":"U","NORAD_CAT_ID":59586,"ELEMENT_SET_NO":999,"REV_AT_EPOCH":581,"BSTAR":0.0024766131,"MEAN_MOTION_DOT":0.00076042,"MEAN_MOTION_DDOT":0},{"OBJECT_NAME":"STARLINK-34104","OBJECT_ID":"2025-110G","EPOCH":"2026-03-09T21:41:43.931616","MEAN_MOTION":15.30208132,"ECCENTRICITY":0.00012254,"INCLINATION":53.1585,"RA_OF_ASC_NODE":25.8867,"ARG_OF_PERICENTER":101.3794,"MEAN_ANOMALY":258.7345,"EPHEMERIS_TYPE":0,"CLASSIFICATION_TYPE":"U","NORAD_CAT_ID":64102,"ELEMENT_SET_NO":999,"REV_AT_EPOCH":4591,"BSTAR":0.00076416857,"MEAN_MOTION_DOT":0.00022347,"MEAN_MOTION_DDOT":0}]
